HST                     
1 20580U 90037B   26068.15977042  .00009063  00000+0  30023-3 0  9999
2 20580  28.4717  43.6133 0001837 120.9992 239.0785 15.29473555773239
STARLINK-33862          
1 63709U 25087N   26068.71330931  .00030746  00000+0  10458-2 0  9995
2 63709  53.1574 219.4155 0000844  97.5132 262.5964 15.30204885 49207
